{"type": "FeatureCollection", "features": [{"type": "Feature", "properties": {"norad_id": 24876, "name": "GPS BIIR-2  (PRN 13)", "group": "gnss", "lat": -28.718592718843784, "lon": 83.72200578463591, "alt_km": 20193.829072296867, "timestamp": "2025-12-22T15:43:49.245159+00:00", "meta": {"OBJECT_NAME": "GPS BIIR-2  (PRN 13)", "OBJECT_ID": "1997-035A", "EPOCH": "2025-12-22T04:56:13.452864", "MEAN_MOTION": 2.00563743, "ECCENTRICITY": 0.00968355, "INCLINATION": 55.8998, "RA_OF_ASC_NODE": 105.4987, "ARG_OF_PERICENTER": 56.9648, "MEAN_ANOMALY": 303.9476, "EPHEMERIS_TYPE": 0, "CLASSIFICATION_TYPE": "U", "NORAD_CAT_ID": 24876, "ELEMENT_SET_NO": 999, "REV_AT_EPOCH": 20840, "BSTAR": 0, "MEAN_MOTION_DOT": 1.2e-07, "MEAN_MOTION_DDOT": 0}, "tle": {"line1": "1 24876U 97035A   25356.20571126  .00000012  00000+0  00000+0 0  9997", "line2": "2 24876  55.8998 105.4987 0096835  56.9648 303.9476  2.00563743208402"}}, "geometry": {"type": "Point", "coordinates": [83.72200578463591, -28.718592718843784]}}, {"type": "Feature", "properties": {"norad_id": 26360, "name": "GPS BIIR-4  (PRN 20)", "group": "gnss", "lat": 43.840244445819785, "lon": 68.62749944491306, "alt_km": 20279.7361516744, "timestamp": "2025-12-22T15:43:49.245206+00:00", "meta": {"OBJECT_NAME": "GPS BIIR-4  (PRN 20)", "OBJECT_ID": "2000-025A", "EPOCH": "2025-12-22T04:40:22.100736", "MEAN_MOTION": 2.00566942, "ECCENTRICITY": 0.00388974, "INCLINATION": 55.0508, "RA_OF_ASC_NODE": 26.4555, "ARG_OF_PERICENTER": 242.8773, "MEAN_ANOMALY": 202.1423, "EPHEMERIS_TYPE": 0, "CLASSIFICATION_TYPE": "U", "NORAD_CAT_ID": 26360, "ELEMENT_SET_NO": 999, "REV_AT_EPOCH": 18772, "BSTAR": 0, "MEAN_MOTION_DOT": -5.9e-07, "MEAN_MOTION_DDOT": 0}, "tle": {"line1": "1 26360U 00025A   25356.19470024 -.00000059  00000+0  00000+0 0  9995", "line2": "2 26360  55.0508  26.4555 0038897 242.8773 202.1423  2.00566942187720"}}, "geometry": {"type": "Point", "coordinates": [68.62749944491306, 43.840244445819785]}}, {"type": "Feature", "properties": {"norad_id": 26407, "name": "GPS BIIR-5  (PRN 22)", "group": "gnss", "lat": -52.618232648888906, "lon": 109.20711405777305, "alt_km": 19953.031650243276, "timestamp": "2025-12-22T15:43:49.245226+00:00", "meta": {"OBJECT_NAME": "GPS BIIR-5  (PRN 22)", "OBJECT_ID": "2000-040A", "EPOCH": "2025-12-21T19:27:10.878912", "MEAN_MOTION": 2.00568103, "ECCENTRICITY": 0.01255143, "INCLINATION": 54.8888, "RA_OF_ASC_NODE": 222.2083, "ARG_OF_PERICENTER": 301.962, "MEAN_ANOMALY": 65.3389, "EPHEMERIS_TYPE": 0, "CLASSIFICATION_TYPE": "U", "NORAD_CAT_ID": 26407, "ELEMENT_SET_NO": 999, "REV_AT_EPOCH": 18639, "BSTAR": 0, "MEAN_MOTION_DOT": 6.9e-07, "MEAN_MOTION_DDOT": 0}, "tle": {"line1": "1 26407U 00040A   25355.81054258  .00000069  00000+0  00000+0 0  9999", "line2": "2 26407  54.8888 222.2083 0125514 301.9620  65.3389  2.00568103186396"}}, "geometry": {"type": "Point", "coordinates": [109.20711405777305, -52.618232648888906]}}, {"type": "Feature", "properties": {"norad_id": 27663, "name": "GPS BIIR-8  (PRN 16)", "group": "gnss", "lat": 26.238376291683636, "lon": -117.74152106518027, "alt_km": 19806.750174964407, "timestamp": "2025-12-22T15:43:49.245241+00:00", "meta": {"OBJECT_NAME": "GPS BIIR-8  (PRN 16)", "OBJECT_ID": "2003-005A", "EPOCH": "2025-12-20T15:07:28.763328", "MEAN_MOTION": 2.00570507, "ECCENTRICITY": 0.0147742, "INCLINATION": 54.9216, "RA_OF_ASC_NODE": 222.0644, "ARG_OF_PERICENTER": 51.9121, "MEAN_ANOMALY": 319.0535, "EPHEMERIS_TYPE": 0, "CLASSIFICATION_TYPE": "U", "NORAD_CAT_ID": 27663, "ELEMENT_SET_NO": 999, "REV_AT_EPOCH": 16773, "BSTAR": 0, "MEAN_MOTION_DOT": 7.3e-07, "MEAN_MOTION_DDOT": 0}, "tle": {"line1": "1 27663U 03005A   25354.63019402  .00000073  00000+0  00000+0 0  9994", "line2": "2 27663  54.9216 222.0644 0147742  51.9121 319.0535  2.00570507167733"}}, "geometry": {"type": "Point", "coordinates": [-117.74152106518027, 26.238376291683636]}}, {"type": "Feature", "properties": {"norad_id": 28190, "name": "GPS BIIR-11 (PRN 19)", "group": "gnss", "lat": -9.991274386266774, "lon": 109.89495558234584, "alt_km": 19920.683380799812, "timestamp": "2025-12-22T15:43:49.245255+00:00", "meta": {"OBJECT_NAME": "GPS BIIR-11 (PRN 19)", "OBJECT_ID": "2004-009A", "EPOCH": "2025-12-22T01:59:41.237952", "MEAN_MOTION": 2.00560473, "ECCENTRICITY": 0.01084919, "INCLINATION": 54.9772, "RA_OF_ASC_NODE": 282.8425, "ARG_OF_PERICENTER": 167.7907, "MEAN_ANOMALY": 330.6754, "EPHEMERIS_TYPE": 0, "CLASSIFICATION_TYPE": "U", "NORAD_CAT_ID": 28190, "ELEMENT_SET_NO": 999, "REV_AT_EPOCH": 15939, "BSTAR": 0, "MEAN_MOTION_DOT": -2.4e-07, "MEAN_MOTION_DDOT": 0}, "tle": {"line1": "1 28190U 04009A   25356.08311618 -.00000024  00000+0  00000+0 0  9997", "line2": "2 28190  54.9772 282.8425 0108491 167.7907 330.6754  2.00560473159399"}}, "geometry": {"type": "Point", "coordinates": [109.89495558234584, -9.991274386266774]}}, {"type": "Feature", "properties": {"norad_id": 28474, "name": "GPS BIIR-13 (PRN 02)", "group": "gnss", "lat": -50.728732492796404, "lon": -149.89556117258655, "alt_km": 19948.28472914554, "timestamp": "2025-12-22T15:43:49.245268+00:00", "meta": {"OBJECT_NAME": "GPS BIIR-13 (PRN 02)", "OBJECT_ID": "2004-045A", "EPOCH": "2025-12-21T13:21:16.085088", "MEAN_MOTION": 2.00569985, "ECCENTRICITY": 0.0170919, "INCLINATION": 55.2363, "RA_OF_ASC_NODE": 332.0513, "ARG_OF_PERICENTER": 309.6441, "MEAN_ANOMALY": 228.908, "EPHEMERIS_TYPE": 0, "CLASSIFICATION_TYPE": "U", "NORAD_CAT_ID": 28474, "ELEMENT_SET_NO": 999, "REV_AT_EPOCH": 15486, "BSTAR": 0, "MEAN_MOTION_DOT": -7.1e-07, "MEAN_MOTION_DDOT": 0}, "tle": {"line1": "1 28474U 04045A   25355.55643617 -.00000071  00000+0  00000+0 0  9992", "line2": "2 28474  55.2363 332.0513 0170919 309.6441 228.9080  2.00569985154869"}}, "geometry": {"type": "Point", "coordinates": [-149.89556117258655, -50.728732492796404]}}, {"type": "Feature", "properties": {"norad_id": 28874, "name": "GPS BIIRM-1 (PRN 17)", "group": "gnss", "lat": -24.062144183204108, "lon": 118.48032157107788, "alt_km": 20143.703340610107, "timestamp": "2025-12-22T15:43:49.245281+00:00", "meta": {"OBJECT_NAME": "GPS BIIRM-1 (PRN 17)", "OBJECT_ID": "2005-038A", "EPOCH": "2025-12-21T00:50:49.977024", "MEAN_MOTION": 2.00577927, "ECCENTRICITY": 0.01313807, "INCLINATION": 55.0245, "RA_OF_ASC_NODE": 280.367, "ARG_OF_PERICENTER": 293.7438, "MEAN_ANOMALY": 187.6731, "EPHEMERIS_TYPE": 0, "CLASSIFICATION_TYPE": "U", "NORAD_CAT_ID": 28874, "ELEMENT_SET_NO": 999, "REV_AT_EPOCH": 14826, "BSTAR": 0, "MEAN_MOTION_DOT": -2.4e-07, "MEAN_MOTION_DDOT": 0}, "tle": {"line1": "1 28874U 05038A   25355.03530066 -.00000024  00000+0  00000+0 0  9993", "line2": "2 28874  55.0245 280.3670 0131380 293.7438 187.6731  2.00577927148263"}}, "geometry": {"type": "Point", "coordinates": [118.48032157107788, -24.062144183204108]}}, {"type": "Feature", "properties": {"norad_id": 28899, "name": "INMARSAT 4-F2 (SOUTHPAN/PRN 122)", "group": "gnss", "lat": 4.504742306731432, "lon": 110.82373490941964, "alt_km": 35795.30712908639, "timestamp": "2025-12-22T15:43:49.245320+00:00", "meta": {"OBJECT_NAME": "INMARSAT 4-F2 (SOUTHPAN/PRN 122)", "OBJECT_ID": "2005-044A", "EPOCH": "2025-12-21T22:26:26.011392", "MEAN_MOTION": 1.00270836, "ECCENTRICITY": 0.0002358, "INCLINATION": 4.8627, "RA_OF_ASC_NODE": 43.7065, "ARG_OF_PERICENTER": 228.5846, "MEAN_ANOMALY": 298.5669, "EPHEMERIS_TYPE": 0, "CLASSIFICATION_TYPE": "U", "NORAD_CAT_ID": 28899, "ELEMENT_SET_NO": 999, "REV_AT_EPOCH": 7374, "BSTAR": 0, "MEAN_MOTION_DOT": -2.41e-06, "MEAN_MOTION_DDOT": 0}, "tle": {"line1": "1 28899U 05044A   25355.93502328 -.00000241  00000+0  00000+0 0  9997", "line2": "2 28899   4.8627  43.7065 0002358 228.5846 298.5669  1.00270836 73746"}}, "geometry": {"type": "Point", "coordinates": [110.82373490941964, 4.504742306731432]}}, {"type": "Feature", "properties": {"norad_id": 29486, "name": "GPS BIIRM-2 (PRN 31)", "group": "gnss", "lat": 47.80987997834689, "lon": -73.10209617140912, "alt_km": 20043.676301014842, "timestamp": "2025-12-22T15:43:49.245335+00:00", "meta": {"OBJECT_NAME": "GPS BIIRM-2 (PRN 31)", "OBJECT_ID": "2006-042A", "EPOCH": "2025-12-21T12:25:39.335232", "MEAN_MOTION": 2.00553827, "ECCENTRICITY": 0.01073004, "INCLINATION": 54.6951, "RA_OF_ASC_NODE": 158.3926, "ARG_OF_PERICENTER": 52.1628, "MEAN_ANOMALY": 320.0686, "EPHEMERIS_TYPE": 0, "CLASSIFICATION_TYPE": "U", "NORAD_CAT_ID": 29486, "ELEMENT_SET_NO": 999, "REV_AT_EPOCH": 14083, "BSTAR": 0, "MEAN_MOTION_DOT": 7.1e-07, "MEAN_MOTION_DDOT": 0}, "tle": {"line1": "1 29486U 06042A   25355.51781638  .00000071  00000+0  00000+0 0  9996", "line2": "2 29486  54.6951 158.3926 0107300  52.1628 320.0686  2.00553827140833"}}, "geometry": {"type": "Point", "coordinates": [-73.10209617140912, 47.80987997834689]}}, {"type": "Feature", "properties": {"norad_id": 29601, "name": "GPS BIIRM-3 (PRN 12)", "group": "gnss", "lat": 5.7753274264700964, "lon": 36.95084404552276, "alt_km": 20160.019471721567, "timestamp": "2025-12-22T15:43:49.245349+00:00", "meta": {"OBJECT_NAME": "GPS BIIRM-3 (PRN 12)", "OBJECT_ID": "2006-052A", "EPOCH": "2025-12-21T22:05:09.010752", "MEAN_MOTION": 2.00574213, "ECCENTRICITY": 0.00880316, "INCLINATION": 54.9687, "RA_OF_ASC_NODE": 221.0338, "ARG_OF_PERICENTER": 87.5441, "MEAN_ANOMALY": 273.5576, "EPHEMERIS_TYPE": 0, "CLASSIFICATION_TYPE": "U", "NORAD_CAT_ID": 29601, "ELEMENT_SET_NO": 999, "REV_AT_EPOCH": 13985, "BSTAR": 0, "MEAN_MOTION_DOT": 7e-07, "MEAN_MOTION_DDOT": 0}, "tle": {"line1": "1 29601U 06052A   25355.92024318  .00000070  00000+0  00000+0 0  9995", "line2": "2 29601  54.9687 221.0338 0088031  87.5441 273.5576  2.00574213139852"}}, "geometry": {"type": "Point", "coordinates": [36.95084404552276, 5.7753274264700964]}}]}